CCSDS_OMM_VERS = 2.0
CREATION_DATE  = 
ORIGINATOR     = 

OBJECT_NAME    = ISS OBJECT XX
OBJECT_ID      = 1998-067XX
CENTER_NAME    = EARTH
REF_FRAME      = TEME
TIME_SYSTEM    = UTC
MEAN_ELEMENT_THEORY = SGP/SGP4

EPOCH          = 2026-03-10T03:36:51.107328
MEAN_MOTION    = 15.75641063
ECCENTRICITY   = .00068779
INCLINATION    = 51.6208
RA_OF_ASC_NODE = 61.6978
ARG_OF_PERICENTER = 85.5905
MEAN_ANOMALY   = 274.5880

EPHEMERIS_TYPE = 0
CLASSIFICATION_TYPE = U
NORAD_CAT_ID   = 66911
ELEMENT_SET_NO = 999
REV_AT_EPOCH   = 1526
BSTAR          = .19565547E-2
MEAN_MOTION_DOT = .317119E-2
MEAN_MOTION_DDOT = 0

CCSDS_OMM_VERS = 2.0
CREATION_DATE  = 
ORIGINATOR     = 

OBJECT_NAME    = ISS OBJECT XY
OBJECT_ID      = 1998-067XY
CENTER_NAME    = EARTH
REF_FRAME      = TEME
TIME_SYSTEM    = UTC
MEAN_ELEMENT_THEORY = SGP/SGP4

EPOCH          = 2026-03-10T05:17:47.850144
MEAN_MOTION    = 15.63798105
ECCENTRICITY   = .00032179
INCLINATION    = 51.6272
RA_OF_ASC_NODE = 64.4503
ARG_OF_PERICENTER = 91.2720
MEAN_ANOMALY   = 268.8644

EPHEMERIS_TYPE = 0
CLASSIFICATION_TYPE = U
NORAD_CAT_ID   = 66912
ELEMENT_SET_NO = 999
REV_AT_EPOCH   = 1523
BSTAR          = .11636874E-2
MEAN_MOTION_DOT = .11218E-2
MEAN_MOTION_DDOT = 0

CCSDS_OMM_VERS = 2.0
CREATION_DATE  = 
ORIGINATOR     = 

OBJECT_NAME    = KNACKSAT-2
OBJECT_ID      = 1998-067XZ
CENTER_NAME    = EARTH
REF_FRAME      = TEME
TIME_SYSTEM    = UTC
MEAN_ELEMENT_THEORY = SGP/SGP4

EPOCH          = 2026-03-10T05:49:37.518240
MEAN_MOTION    = 15.51877340
ECCENTRICITY   = .00093782
INCLINATION    = 51.6312
RA_OF_ASC_NODE = 69.1011
ARG_OF_PERICENTER = 187.6650
MEAN_ANOMALY   = 172.4198

EPHEMERIS_TYPE = 0
CLASSIFICATION_TYPE = U
NORAD_CAT_ID   = 67683
ELEMENT_SET_NO = 999
REV_AT_EPOCH   = 487
BSTAR          = .74646297E-3
MEAN_MOTION_DOT = .45414E-3
MEAN_MOTION_DDOT = 0

CCSDS_OMM_VERS = 2.0
CREATION_DATE  = 
ORIGINATOR     = 

OBJECT_NAME    = GXIBA-1
OBJECT_ID      = 1998-067YA
CENTER_NAME    = EARTH
REF_FRAME      = TEME
TIME_SYSTEM    = UTC
MEAN_ELEMENT_THEORY = SGP/SGP4

EPOCH          = 2026-03-09T07:32:56.030496
MEAN_MOTION    = 15.54259962
ECCENTRICITY   = .00110131
INCLINATION    = 51.6300
RA_OF_ASC_NODE = 73.4032
ARG_OF_PERICENTER = 174.4815
MEAN_ANOMALY   = 185.6299

EPHEMERIS_TYPE = 0
CLASSIFICATION_TYPE = U
NORAD_CAT_ID   = 67684
ELEMENT_SET_NO = 999
REV_AT_EPOCH   = 473
BSTAR          = .11905476E-2
MEAN_MOTION_DOT = .79693E-3
MEAN_MOTION_DDOT = 0

CCSDS_OMM_VERS = 2.0
CREATION_DATE  = 
ORIGINATOR     = 

OBJECT_NAME    = CORAL
OBJECT_ID      = 1998-067YB
CENTER_NAME    = EARTH
REF_FRAME      = TEME
TIME_SYSTEM    = UTC
MEAN_ELEMENT_THEORY = SGP/SGP4

EPOCH          = 2026-03-10T07:15:45.775296
MEAN_MOTION    = 15.52253363
ECCENTRICITY   = .00113765
INCLINATION    = 51.6311
RA_OF_ASC_NODE = 68.7514
ARG_OF_PERICENTER = 184.5140
MEAN_ANOMALY   = 175.5749

EPHEMERIS_TYPE = 0
CLASSIFICATION_TYPE = U
NORAD_CAT_ID   = 67685
ELEMENT_SET_NO = 999
REV_AT_EPOCH   = 488
BSTAR          = .85674009E-3
MEAN_MOTION_DOT = .53003E-3
MEAN_MOTION_DDOT = 0

CCSDS_OMM_VERS = 2.0
CREATION_DATE  = 
ORIGINATOR     = 

OBJECT_NAME    = ISS OBJECT YC
OBJECT_ID      = 1998-067YC
CENTER_NAME    = EARTH
REF_FRAME      = TEME
TIME_SYSTEM    = UTC
MEAN_ELEMENT_THEORY = SGP/SGP4

EPOCH          = 2026-03-10T05:34:49.865376
MEAN_MOTION    = 15.52794890
ECCENTRICITY   = .00079627
INCLINATION    = 51.6310
RA_OF_ASC_NODE = 69.0348
ARG_OF_PERICENTER = 152.0771
MEAN_ANOMALY   = 208.0648

EPHEMERIS_TYPE = 0
CLASSIFICATION_TYPE = U
NORAD_CAT_ID   = 67686
ELEMENT_SET_NO = 999
REV_AT_EPOCH   = 487
BSTAR          = .10125244E-2
MEAN_MOTION_DOT = .63974E-3
MEAN_MOTION_DDOT = 0

CCSDS_OMM_VERS = 2.0
CREATION_DATE  = 
ORIGINATOR     = 

OBJECT_NAME    = LEOPARD
OBJECT_ID      = 1998-067YD
CENTER_NAME    = EARTH
REF_FRAME      = TEME
TIME_SYSTEM    = UTC
MEAN_ELEMENT_THEORY = SGP/SGP4

EPOCH          = 2026-03-10T05:46:10.020000
MEAN_MOTION    = 15.52057189
ECCENTRICITY   = .00078502
INCLINATION    = 51.6320
RA_OF_ASC_NODE = 69.0869
ARG_OF_PERICENTER = 156.0408
MEAN_ANOMALY   = 204.0948

EPHEMERIS_TYPE = 0
CLASSIFICATION_TYPE = U
NORAD_CAT_ID   = 67687
ELEMENT_SET_NO = 999
REV_AT_EPOCH   = 479
BSTAR          = .77893275E-3
MEAN_MOTION_DOT = .47709E-3
MEAN_MOTION_DDOT = 0

CCSDS_OMM_VERS = 2.0
CREATION_DATE  = 
ORIGINATOR     = 

OBJECT_NAME    = ISS OBJECT YE
OBJECT_ID      = 1998-067YE
CENTER_NAME    = EARTH
REF_FRAME      = TEME
TIME_SYSTEM    = UTC
MEAN_ELEMENT_THEORY = SGP/SGP4

EPOCH          = 2026-03-10T05:38:33.125568
MEAN_MOTION    = 15.52539979
ECCENTRICITY   = .00078862
INCLINATION    = 51.6311
RA_OF_ASC_NODE = 69.0519
ARG_OF_PERICENTER = 152.6899
MEAN_ANOMALY   = 207.4507

EPHEMERIS_TYPE = 0
CLASSIFICATION_TYPE = U
NORAD_CAT_ID   = 67688
ELEMENT_SET_NO = 999
REV_AT_EPOCH   = 479
BSTAR          = .94629487E-3
MEAN_MOTION_DOT = .59171E-3
MEAN_MOTION_DDOT = 0

CCSDS_OMM_VERS = 2.0
CREATION_DATE  = 
ORIGINATOR     = 

OBJECT_NAME    = CREW DRAGON 12
OBJECT_ID      = 2026-031A
CENTER_NAME    = EARTH
REF_FRAME      = TEME
TIME_SYSTEM    = UTC
MEAN_ELEMENT_THEORY = SGP/SGP4

EPOCH          = 2026-03-10T03:48:27.801504
MEAN_MOTION    = 15.48557200
ECCENTRICITY   = .00079716
INCLINATION    = 51.6324
RA_OF_ASC_NODE = 70.0375
ARG_OF_PERICENTER = 176.2903
MEAN_ANOMALY   = 183.8146

EPHEMERIS_TYPE = 0
CLASSIFICATION_TYPE = U
NORAD_CAT_ID   = 67796
ELEMENT_SET_NO = 999
REV_AT_EPOCH   = 55629
BSTAR          = .17625562E-3
MEAN_MOTION_DOT = .913E-4
MEAN_MOTION_DDOT = 0

