ISS OBJECT XX           
1 66911U 98067XX  26069.15059152  .00317119  00000+0  19566-2 0  9994
2 66911  51.6208  61.6978 0006877  85.5905 274.5880 15.75641063 15260
ISS OBJECT XY           
1 66912U 98067XY  26069.22069271  .00112180  00000+0  11637-2 0  9998
2 66912  51.6272  64.4503 0003217  91.2720 268.8644 15.63798105 15239
KNACKSAT-2              
1 67683U 98067XZ  26069.24279535  .00045414  00000+0  74646-3 0  9997
2 67683  51.6312  69.1011 0009378 187.6650 172.4198 15.51877340  4870
GXIBA-1                 
1 67684U 98067YA  26068.31453739  .00079693  00000+0  11905-2 0  9999
2 67684  51.6300  73.4032 0011013 174.4815 185.6299 15.54259962  4735
CORAL                   
1 67685U 98067YB  26069.30261314  .00053003  00000+0  85674-3 0  9998
2 67685  51.6311  68.7514 0011376 184.5140 175.5749 15.52253363  4886
ISS OBJECT YC           
1 67686U 98067YC  26069.23252159  .00063974  00000+0  10125-2 0  9994
2 67686  51.6310  69.0348 0007962 152.0771 208.0648 15.52794890  4875
LEOPARD                 
1 67687U 98067YD  26069.24039375  .00047709  00000+0  77893-3 0  9993
2 67687  51.6320  69.0869 0007850 156.0408 204.0948 15.52057189  4795
ISS OBJECT YE           
1 67688U 98067YE  26069.23510562  .00059171  00000+0  94629-3 0  9997
2 67688  51.6311  69.0519 0007886 152.6899 207.4507 15.52539979  4793
CREW DRAGON 12          
1 67796U 26031A   26069.15865511  .00009130  00000+0  17626-3 0  9999
2 67796  51.6324  70.0375 0007971 176.2903 183.8146 15.48557200556297
